FENGYUN 1C DEB          
1 29782U 99025BY  17345.91393288  .00000525  00000-0  37066-3 0  9993
2 29782  99.1559 327.1292 0063773  16.9123  35.3609 14.01502210556426
